start=new Date('2023-05-27T00:00:00.000Z').valueOf();
sats=[{"DECAY_DATE":null,"NORAD_CAT_ID":"55611","EPHEMERIS_TYPE":"0","COUNTRY_CODE":"US","RA_OF_ASC_NODE":"124.7482","MEAN_ANOMALY":"90.7459","PERIAPSIS":"558.079","MEAN_ELEMENT_THEORY":"SGP4","BSTAR":"0.00002937700000","FILE":"3917630","MEAN_MOTION_DDOT":"0.0000000000000","REV_AT_EPOCH":"1589","SEMIMAJOR_AXIS":"6937.218","REF_FRAME":"TEME","MEAN_MOTION_DOT":"0.00000193","ARG_OF_PERICENTER":"269.3218","CLASSIFICATION_TYPE":"U","RCS_SIZE":"LARGE","PERIOD":"95.838","MEAN_MOTION":"15.02535671","ELEMENT_SET_NO":"999","LAUNCH_DATE":"2023-02-12","CENTER_NAME":"EARTH","TLE_LINE1":"1 55611U 23020AU  23146.41589870  .00000193  00000-0  29377-4 0  9998","SITE":"AFETR","OBJECT_ID":"2023-020AU","GP_ID":"232557608","APOAPSIS":"560.086","OBJECT_NAME":"STARLINK-5730","ECCENTRICITY":"0.00014460","OBJECT_TYPE":"PAYLOAD","TLE_LINE2":"2 55611  43.0033 124.7482 0001446 269.3218  90.7459 15.02535671 15899","INCLINATION":"43.0033","TIME_SYSTEM":"UTC","EPOCH":"2023-05-26T09:58:53.647680"},{"PERIOD":"95.838","CLASSIFICATION_TYPE":"U","RCS_SIZE":"LARGE","MEAN_MOTION":"15.02535783","CENTER_NAME":"EARTH","ELEMENT_SET_NO":"999","LAUNCH_DATE":"2023-02-12","SITE":"AFETR","OBJECT_ID":"2023-020AV","TLE_LINE1":"1 55612U 23020AV  23146.41034820  .00000584  00000-0  58301-4 0  9992","ECCENTRICITY":"0.00013410","OBJECT_NAME":"STARLINK-5734","GP_ID":"232558358","APOAPSIS":"560.012","TLE_LINE2":"2 55612  43.0033 124.7065 0001341 266.8448  93.2241 15.02535783 15899","OBJECT_TYPE":"PAYLOAD","INCLINATION":"43.0033","EPOCH":"2023-05-26T09:50:54.084480","TIME_SYSTEM":"UTC","DECAY_DATE":null,"NORAD_CAT_ID":"55612","EPHEMERIS_TYPE":"0","RA_OF_ASC_NODE":"124.7065","COUNTRY_CODE":"US","MEAN_ANOMALY":"93.2241","PERIAPSIS":"558.152","MEAN_ELEMENT_THEORY":"SGP4","BSTAR":"0.00005830100000","FILE":"3917630","MEAN_MOTION_DDOT":"0.0000000000000","SEMIMAJOR_AXIS":"6937.217","REF_FRAME":"TEME","REV_AT_EPOCH":"1589","MEAN_MOTION_DOT":"0.00000584","ARG_OF_PERICENTER":"266.8448"},{"DECAY_DATE":null,"EPHEMERIS_TYPE":"0","NORAD_CAT_ID":"55613","RA_OF_ASC_NODE":"125.1406","COUNTRY_CODE":"US","MEAN_ANOMALY":"86.1140","PERIAPSIS":"558.268","MEAN_ELEMENT_THEORY":"SGP4","BSTAR":"0.00002654800000","FILE":"3917630","MEAN_MOTION_DDOT":"0.0000000000000","SEMIMAJOR_AXIS":"6937.218","REF_FRAME":"TEME","REV_AT_EPOCH":"1588","MEAN_MOTION_DOT":"0.00000155","ARG_OF_PERICENTER":"273.9568","PERIOD":"95.838","CLASSIFICATION_TYPE":"U","RCS_SIZE":"LARGE","MEAN_MOTION":"15.02535411","CENTER_NAME":"EARTH","LAUNCH_DATE":"2023-02-12","ELEMENT_SET_NO":"999","SITE":"AFETR","OBJECT_ID":"2023-020AW","TLE_LINE1":"1 55613U 23020AW  23146.35275051  .00000155  00000-0  26548-4 0  9991","ECCENTRICITY":"0.00011760","GP_ID":"232556607","APOAPSIS":"559.899","OBJECT_NAME":"STARLINK-5715","TLE_LINE2":"2 55613  43.0035 125.1406 0001176 273.9568  86.1140 15.02535411 15880","OBJECT_TYPE":"PAYLOAD","INCLINATION":"43.0035","EPOCH":"2023-05-26T08:27:57.644064","TIME_SYSTEM":"UTC"},{"RCS_SIZE":"LARGE","CLASSIFICATION_TYPE":"U","PERIOD":"95.838","MEAN_MOTION":"15.02541465","LAUNCH_DATE":"2023-02-12","ELEMENT_SET_NO":"999","CENTER_NAME":"EARTH","TLE_LINE1":"1 55614U 23020AX  23146.34855851  .00000577  00000-0  57788-4 0  9991","OBJECT_ID":"2023-020AX","SITE":"AFETR","OBJECT_NAME":"STARLINK-5714","GP_ID":"232556857","APOAPSIS":"560.062","ECCENTRICITY":"0.00014380","OBJECT_TYPE":"PAYLOAD","TLE_LINE2":"2 55614  43.0028 112.0611 0001438 266.5472  93.5206 15.02541465 16038","INCLINATION":"43.0028","TIME_SYSTEM":"UTC","EPOCH":"2023-05-26T08:21:55.455264","RA_OF_ASC_NODE":"112.0611","COUNTRY_CODE":"US","EPHEMERIS_TYPE":"0","DECAY_DATE":null,"NORAD_CAT_ID":"55614","MEAN_ANOMALY":"93.5206","PERIAPSIS":"558.067","BSTAR":"0.00005778800000","MEAN_ELEMENT_THEORY":"SGP4","FILE":"3917630","MEAN_MOTION_DDOT":"0.0000000000000","REV_AT_EPOCH":"1603","REF_FRAME":"TEME","SEMIMAJOR_AXIS":"6937.200","ARG_OF_PERICENTER":"266.5472","MEAN_MOTION_DOT":"0.00000577"},{"TLE_LINE1":"1 55615U 23020AY  23146.40812705 -.00000128  00000-0  55869-5 0  9992","SITE":"AFETR","OBJECT_ID":"2023-020AY","LAUNCH_DATE":"2023-02-12","ELEMENT_SET_NO":"999","CENTER_NAME":"EARTH","MEAN_MOTION":"15.02537493","CLASSIFICATION_TYPE":"U","RCS_SIZE":"LARGE","PERIOD":"95.838","TIME_SYSTEM":"UTC","EPOCH":"2023-05-26T09:47:42.177120","INCLINATION":"43.0033","OBJECT_TYPE":"PAYLOAD","TLE_LINE2":"2 55615  43.0033 124.6898 0001369 268.3546  91.7139 15.02537493 15890","GP_ID":"232558108","APOAPSIS":"560.027","OBJECT_NAME":"STARLINK-5712","ECCENTRICITY":"0.00013690","MEAN_ELEMENT_THEORY":"SGP4","BSTAR":"0.00000558690000","PERIAPSIS":"558.127","MEAN_ANOMALY":"91.7139","NORAD_CAT_ID":"55615","DECAY_DATE":null,"EPHEMERIS_TYPE":"0","RA_OF_ASC_NODE":"124.6898","COUNTRY_CODE":"US","MEAN_MOTION_DOT":"-0.00000128","ARG_OF_PERICENTER":"268.3546","REV_AT_EPOCH":"1589","SEMIMAJOR_AXIS":"6937.212","REF_FRAME":"TEME","MEAN_MOTION_DDOT":"0.0000000000000","FILE":"3917630"},{"MEAN_ANOMALY":"93.1266","DECAY_DATE":null,"NORAD_CAT_ID":"55616","EPHEMERIS_TYPE":"0","COUNTRY_CODE":"US","RA_OF_ASC_NODE":"124.6245","MEAN_ELEMENT_THEORY":"SGP4","BSTAR":"0.00000986180000","PERIAPSIS":"558.093","MEAN_MOTION_DDOT":"0.0000000000000","FILE":"3917630","MEAN_MOTION_DOT":"-0.00000070","ARG_OF_PERICENTER":"266.9414","REV_AT_EPOCH":"1589","SEMIMAJOR_AXIS":"6937.213","REF_FRAME":"TEME","MEAN_MOTION":"15.02537203","CLASSIFICATION_TYPE":"U","RCS_SIZE":"LARGE","PERIOD":"95.838","TLE_LINE1":"1 55616U 23020AZ  23146.39924785 -.00000070  00000-0  98618-5 0  9998","SITE":"AFETR","OBJECT_ID":"2023-020AZ","LAUNCH_DATE":"2023-02-12","ELEMENT_SET_NO":"999","CENTER_NAME":"EARTH","OBJECT_TYPE":"PAYLOAD","TLE_LINE2":"2 55616  43.0029 124.6245 0001419 266.9414  93.1266 15.02537203 15892","GP_ID":"232557859","OBJECT_NAME":"STARLINK-5710","APOAPSIS":"560.062","ECCENTRICITY":"0.00014190","TIME_SYSTEM":"UTC","EPOCH":"2023-05-26T09:34:55.014240","INCLINATION":"43.0029"},{"OBJECT_ID":"2023-020BA","SITE":"AFETR","TLE_LINE1":"1 55617U 23020BA  23146.93661853 -.00000178  00000-0  19115-5 0  9997","CENTER_NAME":"EARTH","ELEMENT_SET_NO":"999","LAUNCH_DATE":"2023-02-12","MEAN_MOTION":"15.02541733","PERIOD":"95.838","RCS_SIZE":"LARGE","CLASSIFICATION_TYPE":"U","EPOCH":"2023-05-26T22:28:43.840992","TIME_SYSTEM":"UTC","INCLINATION":"43.0031","TLE_LINE2":"2 55617  43.0031 121.7761 0001386 269.9042  90.1641 15.02541733 15976","OBJECT_TYPE":"PAYLOAD","ECCENTRICITY":"0.00013860","GP_ID":"232588756","APOAPSIS":"560.025","OBJECT_NAME":"STARLINK-5721","BSTAR":"0.00000191150000","MEAN_ELEMENT_THEORY":"SGP4","PERIAPSIS":"558.102","MEAN_ANOMALY":"90.1641","RA_OF_ASC_NODE":"121.7761","COUNTRY_CODE":"US","NORAD_CAT_ID":"55617","DECAY_DATE":null,"EPHEMERIS_TYPE":"0","ARG_OF_PERICENTER":"269.9042","MEAN_MOTION_DOT":"-0.00000178","REF_FRAME":"TEME","SEMIMAJOR_AXIS":"6937.199","REV_AT_EPOCH":"1597","MEAN_MOTION_DDOT":"0.0000000000000","FILE":"3917850"},{"OBJECT_ID":"2023-020BB","SITE":"AFETR","TLE_LINE1":"1 55618U 23020BB  23146.39702858  .00000163  00000-0  27133-4 0  9990","CENTER_NAME":"EARTH","LAUNCH_DATE":"2023-02-12","ELEMENT_SET_NO":"999","MEAN_MOTION":"15.02535257","PERIOD":"95.838","RCS_SIZE":"LARGE","CLASSIFICATION_TYPE":"U","EPOCH":"2023-05-26T09:31:43.269312","TIME_SYSTEM":"UTC","INCLINATION":"43.0032","TLE_LINE2":"2 55618  43.0032 124.6079 0001344 271.2833  88.7856 15.02535257 15896","OBJECT_TYPE":"PAYLOAD","ECCENTRICITY":"0.00013440","OBJECT_NAME":"STARLINK-5717","GP_ID":"232557357","APOAPSIS":"560.016","BSTAR":"0.00002713300000","MEAN_ELEMENT_THEORY":"SGP4","PERIAPSIS":"558.151","MEAN_ANOMALY":"88.7856","COUNTRY_CODE":"US","RA_OF_ASC_NODE":"124.6079","DECAY_DATE":null,"NORAD_CAT_ID":"55618","EPHEMERIS_TYPE":"0","ARG_OF_PERICENTER":"271.2833","MEAN_MOTION_DOT":"0.00000163","REF_FRAME":"TEME","SEMIMAJOR_AXIS":"6937.219","REV_AT_EPOCH":"1589","MEAN_MOTION_DDOT":"0.0000000000000","FILE":"3917630"},{"MEAN_ANOMALY":"83.9821","DECAY_DATE":null,"NORAD_CAT_ID":"55619","EPHEMERIS_TYPE":"0","COUNTRY_CODE":"US","RA_OF_ASC_NODE":"124.5908","MEAN_ELEMENT_THEORY":"SGP4","BSTAR":"-0.00002881400000","PERIAPSIS":"558.144","MEAN_MOTION_DDOT":"0.0000000000000","FILE":"3917630","MEAN_MOTION_DOT":"-0.00000593","ARG_OF_PERICENTER":"276.0869","SEMIMAJOR_AXIS":"6937.204","REF_FRAME":"TEME","REV_AT_EPOCH":"1589","MEAN_MOTION":"15.02540016","PERIOD":"95.838","CLASSIFICATION_TYPE":"U","RCS_SIZE":"LARGE","SITE":"AFETR","OBJECT_ID":"2023-020BC","TLE_LINE1":"1 55619U 23020BC  23146.39480877 -.00000593  00000-0 -28814-4 0  9991","CENTER_NAME":"EARTH","LAUNCH_DATE":"2023-02-12","ELEMENT_SET_NO":"999","TLE_LINE2":"2 55619  43.0030 124.5908 0001334 276.0869  83.9821 15.02540016 15894","OBJECT_TYPE":"PAYLOAD","ECCENTRICITY":"0.00013340","APOAPSIS":"559.995","GP_ID":"232557609","OBJECT_NAME":"STARLINK-5720","EPOCH":"2023-05-26T09:28:31.477728","TIME_SYSTEM":"UTC","INCLINATION":"43.0030"},{"NORAD_CAT_ID":"55620","DECAY_DATE":null,"EPHEMERIS_TYPE":"0","COUNTRY_CODE":"US","RA_OF_ASC_NODE":"124.5465","MEAN_ANOMALY":"88.7875","PERIAPSIS":"558.104","MEAN_ELEMENT_THEORY":"SGP4","BSTAR":"0.00009009100000","FILE":"3917630","MEAN_MOTION_DDOT":"0.0000000000000","REV_AT_EPOCH":"1589","SEMIMAJOR_AXIS":"6937.204","REF_FRAME":"TEME","MEAN_MOTION_DOT":"0.00001014","ARG_OF_PERICENTER":"271.2808","CLASSIFICATION_TYPE":"U","RCS_SIZE":"LARGE","PERIOD":"95.838","MEAN_MOTION":"15.02540094","ELEMENT_SET_NO":"999","LAUNCH_DATE":"2023-02-12","CENTER_NAME":"EARTH","TLE_LINE1":"1 55620U 23020BD  23146.38925696  .00001014  00000-0  90091-4 0  9998","SITE":"AFETR","OBJECT_ID":"2023-020BD","APOAPSIS":"560.034","GP_ID":"232558359","OBJECT_NAME":"STARLINK-5718","ECCENTRICITY":"0.00013910","OBJECT_TYPE":"PAYLOAD","TLE_LINE2":"2 55620  43.0037 124.5465 0001391 271.2808  88.7875 15.02540094 15892","INCLINATION":"43.0037","TIME_SYSTEM":"UTC","EPOCH":"2023-05-26T09:20:31.801344"}];
